MALLIGYONG-1            
1 58400U 23179A   24164.24788005  .00007135  00000+0  32465-3 0  9998
2 58400  97.4040  51.1823 0001996 152.6365 207.4976 15.21013721 30973
